[{"OBJECT_NAME":"M2 PATHFINDER","OBJECT_ID":"2020-037E","EPOCH":"2026-03-09T11:30:45.742176","MEAN_MOTION":15.04175941,"ECCENTRICITY":0.00124059,"INCLINATION":97.8158,"RA_OF_ASC_NODE":258.5983,"ARG_OF_PERICENTER":127.8041,"MEAN_ANOMALY":232.431,"EPHEMERIS_TYPE":0,"CLASSIFICATION_TYPE":"U","NORAD_CAT_ID":45727,"ELEMENT_SET_NO":999,"REV_AT_EPOCH":31050,"BSTAR":0.00032591881,"MEAN_MOTION_DOT":4.468e-5,"MEAN_MOTION_DDOT":0},{"OBJECT_NAME":"STARLINK-35170","OBJECT_ID":"2025-200N","EPOCH":"2026-03-09T18:02:30.421536","MEAN_MOTION":15.05642028,"ECCENTRICITY":0.00012924,"INCLINATION":97.6039,"RA_OF_ASC_NODE":139.9135,"ARG_OF_PERICENTER":106.0695,"MEAN_ANOMALY":254.0674,"EPHEMERIS_TYPE":0,"CLASSIFICATION_TYPE":"U","NORAD_CAT_ID":65532,"ELEMENT_SET_NO":999,"REV_AT_EPOCH":2914,"BSTAR":0.00026847208,"MEAN_MOTION_DOT":3.814e-5,"MEAN_MOTION_DDOT":0}]
