M2 PATHFINDER           
1 45727U 20037E   26068.47969609  .00004468  00000+0  32592-3 0  9994
2 45727  97.8158 258.5983 0012405 127.8041 232.4310 15.04175941310501
STARLINK-35170          
1 65532U 25200N   26068.75174099  .00003814  00000+0  26847-3 0  9999
2 65532  97.6039 139.9135 0001292 106.0695 254.0674 15.05642028 29146
